{"spkid": "50563366", "covariance": {"epoch": "2457938.5", "labels": ["e", "q", "tp", "node", "peri", "i"], "elements": [{"label": "e", "name": "e", "sigma": 6.04623520435518e-08, "units": null, "title": "eccentricity", "value": ".2259982350786219"}, {"units": "au", "value": ".9597224462041606", "title": "perihelion distance", "sigma": 6.89116912976461e-08, "name": "q", "label": "q"}, {"label": "tp", "name": "tp", "sigma": 4.16231180957459e-05, "value": "2457735.222704117606", "title": "time of perihelion passage", "units": "TDB"}, {"label": "node", "title": "longitude of the ascending node", "value": "208.0172340771767", "units": "deg", "name": "om", "sigma": 4.28930152849595e-06}, {"title": "argument of perihelion", "value": "53.13534116735114", "units": "deg", "sigma": 2.22085726779271e-05, "name": "w", "label": "peri"}, {"label": "i", "name": "i", "sigma": 1.74088886446439e-05, "units": "deg", "value": "24.18944969617863", "title": "inclination"}], "data": [["3.655696014638387E-15", "-4.154907422486882E-15", "1.687681736220578E-12", "5.287213900761059E-14", "7.708533310922722E-13", "-8.140877982822044E-15"], ["-4.154907422486882E-15", "4.748821197502079E-15", "-1.766273649134926E-12", "-6.704405572488271E-14", "-8.000717267030377E-13", "2.3233049086981E-14"], ["1.687681736220578E-12", "-1.766273649134926E-12", "1.732483960012408E-9", "-2.104147926633818E-11", "8.813027344191474E-10", "9.19402625590567E-11"], ["5.287213900761059E-14", "-6.704405572488271E-14", "-2.104147926633818E-11", "1.839810760235766E-11", "-2.980025156455535E-11", "2.09270402440615E-11"], ["7.708533310922722E-13", "-8.000717267030377E-13", "8.813027344191474E-10", "-2.980025156455535E-11", "4.93220700390772E-10", "3.174985204697938E-11"], ["-8.140877982822044E-15", "2.3233049086981E-14", "9.19402625590567E-11", "2.09270402440615E-11", "3.174985204697938E-11", "3.03069403841613E-10"]]}, "elements": [{"label": "e", "name": "e", "sigma": "6.0339E-8", "units": null, "value": ".226111610641235", "title": "eccentricity"}, {"label": "a", "name": "a", "sigma": "1.0084E-8", "title": "semi-major axis", "value": "1.24007989188973", "units": "au"}, {"label": "q", "name": "q", "sigma": "6.8985E-8", "units": "au", "title": "perihelion distance", "value": ".9596834302107341"}, {"label": "i", "name": "i", "sigma": "1.7406E-5", "value": "24.18646283120997", "title": "inclination; angle with respect to x-y ecliptic plane", "units": "deg"}, {"label": "node", "name": "om", "sigma": "4.2945E-6", "units": "deg", "value": "207.9772820406081", "title": "longitude of the ascending node"}, {"units": "deg", "value": "53.18946387711602", "title": "argument of perihelion", "name": "w", "sigma": "2.2237E-5", "label": "peri"}, {"sigma": "6.006E-5", "name": "ma", "units": "deg", "title": "mean anomaly", "value": "313.5434281908209", "label": "M"}, {"title": "time of perihelion passage", "value": "2461265.590496270726", "units": "TDB", "sigma": "8.4938E-5", "name": "tp", "label": "tp"}, {"units": "d", "title": "sidereal orbital period", "value": "504.3974995337779", "sigma": "6.1522E-6", "name": "per", "label": "period"}, {"label": "n", "title": "mean motion", "value": ".7137228085641847", "units": "deg/d", "name": "n", "sigma": "8.7054E-9"}, {"name": "ad", "sigma": "1.2364E-8", "units": "au", "value": "1.520476353568725", "title": "aphelion distance", "label": "Q"}], "epoch": "2461200.5"}